#dP2025  1  1  0  0  0.00000000      96 __u+U IGS20 FIT  IAC
## 2347 259200.00000000   900.00000000 60676 0.0000000000000
+  132   C01C02C03C04C05C06C07C08C09C10C11C12C13C14C16C19C20
+        C21C22C23C24C25C26C27C28C29C30C32C33C34C35C36C37C38
+        C39C40C41C42C43C44C45C59C60C62E02E03E04E05E06E07E08
+        E09E10E11E12E13E14E15E18E19E21E24E25E26E27E29E30E31
+        E33E34E36G01G02G03G04G05G06G07G08G09G10G11G12G13G14
+        G15G16G17G18G19G20G21G22G23G24G25G26G27G28G29G30G31
+        G32J02J03J04J07R01R02R03R04R05R06R07R08R09R10R11R12
+        R13R14R15R16R17R18R19R20R21R22R23R24R26  0  0  0  0
++        17 16 16 16 16  9 10 10  9  9  9  8  9  9  9  7  7
++         7  7  7  7  7  7  7  7  7  0  7  7  7  7  7  7  8
++         8  8  7  7  7  7  7 17 17 17  4  4  4  4  4  4  4
++         4  4  4  4  4  4  4  4  4  4  4  4  4  4  4  4  4
++         4  4  4  5  4  4  4  4  4  4  4  4  4  4  3  4  4
++         4  4  3  4  3  4  4  4  4  4  3  4  4  3  4  4  3
++         4  9  9 10 16  7  6  6  6  6 15  6  6  6 14  6  6
++        14  6  6  6  6  6  8  7  6  6 14  6  8  0  0  0  0
%c M  cc GPS ccc cccc cccc cccc cccc ccccc ccccc ccccc ccccc
%c cc cc ccc ccc cccc cccc cccc cccc ccccc ccccc ccccc ccccc
%f  0.0000000  0.000000000  0.00000000000  0.000000000000000
%f  0.0000000  0.000000000  0.00000000000  0.000000000000000
%i    0    0    0    0      0      0      0      0         0
%i    0    0    0    0      0      0      0      0         0
/* INFORMATION & ANALYSIS CENTER (IAC)            RAPID DATA
/* S/V CLOCKS ARE ALIGNED TO GNSS TIME                      
/* G:C1WC2W R:C1PC2P E:C1XC5X C:C2IC6I J:C1CC2S             
/* PCV:IGS20_2317 OL/AL:FES2004  NONE     YN ORB:CoN CLK:CoN
*  2025 01 01 20  0  0.00000000
PC01 -34259.555896  24551.083401   1360.242704   -358.891092
PC02   4391.657791  41916.364203   1663.714642    695.566743
PC03 -14865.553146  39440.220420   1374.585870    773.945731
PC04 -39577.311799  14430.882293   1289.519523   -556.648251
PC05  21889.939577  36085.415773    827.974080    174.169782
PC06 -17450.881410  37013.621788 -10698.991865    615.498971
PC07  -3269.411626  34120.107681 -24276.883454    141.988895
PC08  -9815.885804  19027.210833  36301.105752    234.961620
PC09 -12649.443974  36132.021457 -17898.811503   -871.598979
PC10   3716.903879  36689.281248 -19543.187429   -368.972877
PC11   2258.829695  25715.587999  10677.064861    317.156167
PC12  -9748.342848  25004.571898  -7617.332158   -224.699931
PC13  -4154.930173  21314.443675  36318.313688     71.984480
PC14  12489.550420  21288.221573  12978.319980   -609.844502
PC16 -19059.946962  36716.911406  -8830.630890    -23.678146
PC19 -19449.885961 -19537.766904  -4383.740342   -965.126242
PC20  -5333.073230 -20228.948666 -18474.434403   -880.593187
PC21 -13658.495909   8557.493812  22795.784017   -906.549191
PC22 -23391.128567  -7662.543386  13164.581656    220.982858
PC23  25578.640286  -1328.951917 -11096.434360   -937.065087
PC24  -7863.204770  18282.495160 -19576.929372    709.702525
PC25  12918.254237  11689.157763 -21821.887331    604.911812
PC26 -23048.363585  14434.414554  -6203.186487   -399.644375
PC27  13961.190615 -18635.855370  15357.494983    417.743166
PC28  16381.810510  -1728.516866  22534.168738    326.555557
PC29  -9319.056990 -20500.290102 -16480.229029    383.339518
PC30      0.000000      0.000000      0.000000 999999.999999
PC32  13661.499097  -8593.067284 -22750.554311   -863.115708
PC33  19489.784017  19446.018091   4513.098876   -947.133708
PC34  -2373.995475  27782.905552   1365.547299    598.286197
PC35 -16354.190880   1429.908524 -22581.649228    165.366452
PC36 -12960.666397 -11788.718304  21728.185658    246.146512
PC37  23627.155810 -13707.705600   5785.762660   -900.222731
PC38 -18829.441920  19687.969749  32206.058850    200.439919
PC39 -21038.470784  36640.274143  -2116.523913    -10.688697
PC40  -6400.535964  30931.665761 -27753.178945   -112.008323
PC41  23585.145008   8395.971922 -12259.960668   -883.162355
PC42   3373.428100  19609.037671  19595.294840   -554.810301
PC43   8880.675149  21223.567765  15802.052540     97.073441
PC44 -13372.774109  19065.954864 -15411.410310    698.646163
PC45 -25345.812274    836.238795  11602.294222   -200.501969
PC59 -32266.396081  27069.606397   1947.741981     -0.470497
PC60   7322.844568  41493.202537   1920.668202      0.705543
PC62 -39581.575969  14447.074757  -1198.269857      0.263636
PE02 -16375.252102  11386.497295 -21876.450800    186.810476
PE03  -9015.581189  19652.662525  20204.865657   -163.812987
PE04  -5071.490899 -28842.147493  -4304.176910   -121.691295
PE05 -17485.913540   -880.384939  23867.420160   4815.377239
PE06 -11332.388316 -26842.329722   5175.682472    -65.466126
PE07  15678.360344  21249.857312 -13364.701933   -161.335000
PE08   4579.763136  28807.976448   5003.109185   -393.556724
PE09 -15564.408604 -21343.139944  13365.128472   -722.110396
PE10  -4142.831250 -17425.906885 -23562.189623   -680.375797
PE11 -13440.542880  -9152.764748 -24735.127666    -76.100639
PE12   4439.164712 -22152.265522 -19108.309372  -1367.061939
PE13  12921.793417   9622.565777  24842.900191    -28.624587
PE14  15171.736756  -8186.465310  19818.210340    538.191018
PE15  -5183.055084  22401.585659  18659.880038   -148.529576
PE18 -20671.077058  -3748.614797 -21921.548537    950.553719
PE19  10067.196979 -18073.668895 -21163.994868   1171.815433
PE21  28393.360863   1433.857282   8247.887089   -637.637331
PE24 -23893.446816 -13866.424925  10572.271787  -1188.350434
PE25 -28484.462278  -1748.964073  -7841.079865     12.845947
PE26  23282.033796  -8857.268080  16002.456143   -166.270194
PE27  23952.511248  13799.833785 -10610.237650   -545.133385
PE29  17570.211312    468.786412 -23824.071591    -58.553947
PE30   5558.025639  17948.409178 -22893.372284  -1091.132682
PE31  -5428.353410 -17863.390576  22965.992833    -48.890634
PE33  20167.142459 -21636.324903  -1184.538425     16.433343
PE34 -19908.931982  21841.879329   1610.553028   -155.160126
PE36 -23121.323336   8512.898682 -16401.950484   -333.142695
PG01  15072.330028 -21157.832202  -5525.229954     11.275684
PG02  13963.441463 -22242.635787  -1641.162883   -278.064088
PG03   8640.678158 -12987.100182 -21641.859654    637.480394
PG04   2618.158554 -22399.956030 -13887.917888    505.319140
PG05 -22252.491059   6228.342699  12979.501176   -197.771409
PG06 -15320.244642  -3665.684877 -21335.191208    -87.985579
PG07    978.773129 -20490.468201  17161.137923    -14.074847
PG08  10129.933438 -13421.916241  20324.255891    451.862819
PG09  -5323.718576 -25201.773862  -6427.510689    511.646402
PG10  22533.240620  10557.013687   9987.551000   -258.835662
PG11 -20707.810968   7892.142406 -14555.163267   -752.517550
PG12 -12656.668414  11694.473866 -20490.204338   -561.946984
PG13 -14254.244901   4196.414410  21774.684514    692.058646
PG14 -19660.637098 -12968.331693  12553.303651    571.834351
PG15  -7906.352344  15287.178380  19674.333790    246.615094
PG16  25231.596346    270.161736   8632.026791    -88.441110
PG17 -12914.928179 -21145.332480  -8865.634770    493.484535
PG18    250.451123  19013.226854  18478.993824   -659.178121
PG19 -15749.394714 -13145.087167 -17241.896243    581.065934
PG20 -26431.339408   1266.011740   1254.539746    367.408232
PG21  16998.357738 -19113.312501   4802.057751     99.560373
PG22 -23663.428650 -10372.231927   5779.210812    -89.950801
PG23  10332.814391  14712.149426  19672.527520    395.423155
PG24 -14187.772454  22191.262422   -684.956976   -468.229614
PG25   2257.422311  15926.771681 -21526.212388    497.358688
PG26  26331.122382   4130.498257  -2724.792261    -31.376430
PG27  15540.935045  -1115.917885  21252.023939    -33.580427
PG28  14571.471865   5686.766814 -21481.609859   -524.345572
PG29   3183.646150  25630.990280  -5957.444809   -550.894795
PG30  -9742.690178 -12833.764865  21239.486502   -248.524748
PG31  19752.087465  -3554.330354 -17821.609637   -218.788143
PG32  15810.642101  17507.328657 -12180.667080   -549.177498
PJ02 -28194.057309  15079.338105 -22819.181462     -0.289165
PJ03 -25807.083310  32981.875626    343.164216     -0.115563
PJ04 -25493.742053  26124.006950  26898.082192     21.271390
PJ07 -25398.251826  33662.327064    -19.417723     -0.047512
PR01 -18088.665330  -8771.850584  15708.164344    109.775815
PR02  -9073.164978   5866.463454  23150.476374    -38.780741
PR03   4990.415763  18140.884835  17307.087361    114.255775
PR04  15552.361820  20103.711327   2315.914583    270.840464
PR05  18000.907378  11495.396639 -13957.105599    143.093587
PR06   7850.407036  -7562.239241 -23071.568488   -195.570082
PR07  -5231.216314 -18224.590969 -16990.700650     98.055408
PR08 -15889.212818 -19831.241909  -1889.418690     -6.228512
PR09  21592.844226  -9715.005756   9393.208711    229.612322
PR10   9338.034440 -12007.236745  20485.104205   -265.499289
PR11  -9851.727379  -8631.924764  21895.895889      2.004933
PR12 -24053.284757    581.281882   8467.049048     49.101744
PR13 -23078.328320   8280.598242  -7043.520014    -54.998773
PR14  -7255.123836  12065.725924 -21270.739959     27.522401
PR15  11623.254514   8128.624389 -21188.415503     72.592197
PR16  23980.643620   -628.391661  -8620.780750     32.113398
PR17  -6405.002427  24258.323068   4504.329729    153.711396
PR18   2473.093962  17480.485628  18455.962917    179.790660
PR19   9603.160225   4092.310125  23280.659304   -304.040089
PR20  13476.153294 -16746.981310  13715.286197   -124.073217
PR21   7275.941686 -24243.358848  -3257.474005   -164.565492
PR22  -3147.935878 -16668.806534 -19013.836541    -53.787927
PR23 -10713.707128  -1174.871887 -23119.688960   -142.941972
PR24 -12812.543036  17703.533645 -13121.761770    -86.446104
PR26 -15147.711653 -20157.512621  -3896.165285   -132.221739
EOF
